CYMX 090000Z 02004KT 340V060 15SM OVC014 07/06 A3027 RMK SC8 SLP255
CYMX 090100Z 06005KT 010V080 15SM OVC010 07/06 A3026 RMK SC8 SLP250
CYMX 090200Z VRB02KT 15SM OVC008 07/06 A3024 RMK ST8 PRESFR SLP244
CYMX 090300Z VRB02KT 15SM OVC006 07/07 A3023 RMK ST8 SLP240
CYMX 090344Z 04003KT 010V090 10SM TS OVC005 07/06 A3022 RMK ST8 OCNL LTGIC E CVCTV CLD EMBDD SLP238
CYMX 090347Z 04003KT 010V090 10SM -TSRA BKN005 OVC012CB 07/07 A3022 RMK SF6CB2 OCNL LTGIC E VIS SW-NW 5 SLP237
CYMX 090400Z 36004KT 310V090 6SM R11/5500VP6000FT/D -TSRA BR BKN006 OVC012CB 07/07 A3022 RMK SF6CB2 SLP236
CYMX 090452Z 05003KT 350V080 10SM -SHRA BKN007 OVC014 07/07 A3019 RMK SF7SC1 CVCTV CLD EMBDD SLP226
CYMX 090500Z 08004KT 340V110 10SM -SHRA BKN007 OVC014 07/07 A3018 RMK SF7SC1 CVCTV CLD EMBDD SLP225
CYMX 090600Z 02004KT 350V070 10SM -SHRA BKN006 OVC012 08/07 A3018 RMK SF7SC1 CVCTV CLD EMBDD SLP225
CYMX 090607Z VRB02KT 10SM BKN006 OVC012 08/07 A3018 RMK SF7SC1 CVCTV CLD EMBDD SLP224
CYMX 090700Z 00000KT 6SM BR OVC006 08/08 A3016 RMK ST8 SLP218
CYMX 090800Z 00000KT 10SM OVC004 08/08 A3015 RMK ST8 SLP215
CYMX 090900Z 00000KT 2SM BR OVC003 08/08 A3014 RMK FG2SF6 SLP211
CYMX 090919Z 00000KT 1 1/2SM BR OVC002 08/08 A3014 RMK FG4SF4 SLP211
CYMX 091005Z 21003KT 3/4SM R11/5500VP6000FT/D BR VV002 08/08 A3013 RMK FG8 RVR R06/4500FT/D SLP207
CYMX 091016Z 21003KT 5/8SM BR VV002 08/08 A3013 RMK FG8 RVR R06/2800FT/D SLP207
CYMX 091051Z 21004KT 170V240 5/8SM R11/2400FT/N -SHRA BR VV002 09/09 A3013 RMK FG8 RVR R06/2600FT/N SLP207
CYMX 091100Z 00000KT 5/8SM -SHRA BR VV002 09/09 A3013 RMK FG8 RVR R06/3500FT/U SLP207
CYMX 091114Z 21003KT 190V260 5/8SM BR VV002 09/09 A3013 RMK FG8 RVR R06/3500FT/N SLP206
CYMX 091200Z 21006KT 1/2SM R11/1800FT/N FG VV002 10/10 A3012 RMK FG8 SLP205
CYMX 091300Z 25005KT 200V290 1SM BR VV002 12/12 A3013 RMK FG8 RVR R06/P6000FT/U SLP205
CYMX 091400Z 24007KT 200V270 1 1/4SM R11/4500FT/D BR OVC002 14/14 A3012 RMK FG4ST4 SLP203
CYMX 091431Z 24005G15KT 210V280 1 1/2SM BR BKN003 BKN020 15/15 A3011 RMK FG2SF4SC1 SLP201
CYMX 091500Z 25008KT 210V280 2 1/2SM BR BKN003 OVC017 16/15 A3011 RMK FG2SF4SC2 SLP201 DENSITY ALT 300FT
CYMX 091551Z 24007KT 210V290 10SM FEW003 BKN021 18/17 A3010 RMK SF2SC5 SLP196 DENSITY ALT 500FT
CYMX 091600Z 24007KT 210V280 8SM FEW003 BKN020 18/17 A3010 RMK SF1SC7 SF TR SLP195 DENSITY ALT 500FT
CYMX 091700Z 25008KT 220V290 10SM FEW025 22/19 A3008 RMK SC1 SLP187 DENSITY ALT 1000FT
CYMX 091800Z 26006KT 200V290 15SM FEW020 FEW150 24/20 A3006 RMK CF1AC1 CF TR AC TR SLP182 DENSITY ALT 1200FT
CYMX 091900Z 26007KT 220V280 25SM FEW025 SCT250 25/21 A3005 RMK SC2CI1 SLP177 DENSITY ALT 1400FT
CYMX 092000Z 23008KT 190V280 25SM FEW033 SCT250 26/21 A3004 RMK CF2CI2 SLP173 DENSITY ALT 1500FT
CYMX 092100Z 22011G17KT 190V260 25SM FEW033 SCT250 26/20 A3003 RMK FU1CI3 FU TR SLP170 DENSITY ALT 1500FT
CYMX 092200Z 22012G17KT 25SM FEW030 FEW150 SCT250 25/20 A3002 RMK CF1AC2CI2 CF TR SLP168 DENSITY ALT 1400FT
CYMX 092300Z 22008KT 25SM FEW030 FEW150 SCT250 24/20 A3002 RMK SC1AC2CI2 SC TR SLP168 DENSITY ALT 1300FT
CYMX 100000Z 24006KT 200V270 25SM FEW150 SCT250 23/20 A3003 RMK AC2CI2 SLP171 DENSITY ALT 1200FT
